      2.10          N: GNSS NAV DATA                        RINEX VERSION / TYPE
fic2rin                                 01/11/2024 00:17:53 PGM / RUN BY / DATE
                                                            END OF HEADER
10 24  1 10 20  0  0.0 -.688107684255D-04 -.147792889038D-11  .000000000000D+00
     .310000000000D+02 -.159937500000D+03  .374158442344D-08  .268788225594D+01
    -.836141407490D-05  .929007527884D-02  .555440783501D-05  .515369584656D+04
     .331200000000D+06 -.316649675369D-07 -.710157887395D+00 -.109896063805D-06
     .982190231114D+00  .283468750000D+03 -.239470546045D+01 -.767424823467D-08
    -.206794328100D-09  .100000000000D+01  .229600000000D+04  .000000000000D+00
     .240000000000D+01  .000000000000D+00  .232830643654D-08  .310000000000D+02
     .324000000000D+06  .400000000000D+01
7  24  1 10 20  0  0.0 -.340826809406D-04 -.943600753089D-11  .000000000000D+00
     .660000000000D+02  .593750000000D+01  .513342811360D-08 -.216770140752D+01
     .119209289551D-06  .177708751289D-01  .480376183987D-05  .515366758347D+04
     .331200000000D+06  .219792127609D-06  .138523839322D+01 -.782310962677D-07
     .949793635220D+00  .275500000000D+03 -.215853698355D+01 -.787889961637D-08
     .424303388225D-09  .100000000000D+01  .229600000000D+04  .000000000000D+00
     .240000000000D+01  .000000000000D+00 -.111758708954D-07  .660000000000D+02
     .324000000000D+06  .400000000000D+01
8  24  1 10 20  0  0.0 -.161440577358D-03 -.193267624127D-11  .000000000000D+00
     .760000000000D+02  .150031250000D+03  .440589780904D-08  .659216705559D+00
     .800564885139D-05  .917439907789D-02  .839494168758D-05  .515357869911D+04
     .331200000000D+06  .651925802231D-07 -.283606500398D+01  .147148966789D-06
     .955681745901D+00  .211500000000D+03  .295670428592D+00 -.798426114795D-08
    -.147863301957D-09  .100000000000D+01  .229600000000D+04  .000000000000D+00
     .340000000000D+01  .000000000000D+00  .512227416039D-08  .760000000000D+02
     .324000000000D+06  .400000000000D+01
9  24  1 10 20  0  0.0  .546691007912D-04  .121644916362D-10  .000000000000D+00
     .720000000000D+02 -.618437500000D+02  .423446209663D-08  .112719513926D+01
    -.318512320518D-05  .288298726082D-02  .114534050226D-04  .515374618340D+04
     .331200000000D+06  .186264514923D-07  .313191447327D+00 -.186264514923D-07
     .957901370060D+00  .155625000000D+03  .201274366349D+01 -.767960560068D-08
     .671099382554D-09  .100000000000D+01  .229600000000D+04  .000000000000D+00
     .240000000000D+01  .000000000000D+00  .139698386192D-08  .720000000000D+02
     .324000000000D+06  .400000000000D+01
6  24  1 10 20  0  0.0  .449202489108D-03 -.130739863380D-10  .000000000000D+00
     .860000000000D+02  .478125000000D+02  .416053044565D-08 -.127053639503D+01
     .246614217758D-05  .309783732519D-02 -.858679413795D-06  .515354188919D+04
     .331200000000D+06 -.670552253723D-07 -.174519951002D+01  .745058059692D-08
     .989438080262D+00  .414125000000D+03 -.813483514842D+00 -.831963226036D-08
     .996470078407D-10  .100000000000D+01  .229600000000D+04  .000000000000D+00
     .240000000000D+01  .000000000000D+00  .372529029846D-08  .860000000000D+02
     .324000000000D+06  .400000000000D+01
4  24  1 10 20  0  0.0  .262705143541D-03  .977706804406D-11  .000000000000D+00
     .185000000000D+03 -.507187500000D+02  .417088801994D-08  .413582897056D+00
    -.259838998318D-05  .280567724258D-02  .112857669592D-04  .515359468079D+04
     .331200000000D+06  .111758708954D-07  .371627682207D+00  .745058059692D-07
     .964395305838D+00  .162906250000D+03 -.301343850924D+01 -.765674750570D-08
     .698957685822D-09  .100000000000D+01  .229600000000D+04  .000000000000D+00
     .240000000000D+01  .000000000000D+00 -.465661287308D-08  .953000000000D+03
     .324000000000D+06  .400000000000D+01
21 24  1 10 20  0  0.0  .138824339956D-03 -.125055521494D-11  .000000000000D+00
     .240000000000D+02  .494062500000D+02  .491163316066D-08  .649507828825D+00
     .203773379326D-05  .251945609925D-01 -.808387994766D-06  .515373047829D+04
     .331200000000D+06  .335276126862D-06 -.184690083611D+01 -.433996319771D-06
     .961669289660D+00  .390093750000D+03 -.653664359447D+00 -.883858244815D-08
     .428589281035D-10  .100000000000D+01  .229600000000D+04  .000000000000D+00
     .240000000000D+01  .000000000000D+00 -.102445483208D-07  .240000000000D+02
     .324000000000D+06  .400000000000D+01
31 24  1 10 20  0  0.0 -.227212905884D-03 -.227373675443D-12  .000000000000D+00
     .920000000000D+02  .634375000000D+01  .517807283037D-08 -.302042391527D+01
     .210478901863D-06  .106213751715D-01  .508129596710D-05  .515365625572D+04
     .331200000000D+06 -.931322574615D-07  .140617392419D+01 -.210478901863D-06
     .953800444954D+00  .279093750000D+03  .650338306938D+00 -.803676333488D-08
     .188936441390D-09  .100000000000D+01  .229600000000D+04  .000000000000D+00
     .240000000000D+01  .000000000000D+00 -.135041773319D-07  .920000000000D+02
     .324000000000D+06  .400000000000D+01
32 24  1 10 20  0  0.0 -.604043714702D-03 -.295585778076D-11  .000000000000D+00
     .540000000000D+02 -.502500000000D+02  .420838958203D-08  .143283354933D+01
    -.258721411228D-05  .738183094654D-02  .115670263767D-04  .515362635994D+04
     .331200000000D+06 -.184401869774D-06  .327273198322D+00 -.223517417908D-07
     .961391715584D+00  .155656250000D+03 -.220193848310D+01 -.776282335275D-08
     .578595529398D-09  .100000000000D+01  .229600000000D+04  .000000000000D+00
     .240000000000D+01  .000000000000D+00  .465661287308D-09  .540000000000D+02
     .324000000000D+06  .400000000000D+01
16 24  1 10 20  0  0.0 -.386788509786D-03  .773070496507D-11  .000000000000D+00
     .800000000000D+02  .152500000000D+02  .447625788268D-08  .166912436422D+01
     .825151801109D-06  .139260714641D-01  .104177743196D-04  .515371591759D+04
     .331200000000D+06 -.301748514175D-06  .251892137813D+01  .111758708954D-07
     .963029152475D+00  .184937500000D+03  .814476391491D+00 -.780318217672D-08
    -.704672209569D-09  .100000000000D+01  .229600000000D+04  .000000000000D+00
     .240000000000D+01  .000000000000D+00 -.102445483208D-07  .800000000000D+02
     .324000000000D+06  .400000000000D+01
30 24  1 10 20  0  0.0 -.447024591267D-03  .454747350886D-11  .000000000000D+00
     .660000000000D+02  .675000000000D+01  .555594571315D-08 -.226360312363D+01
     .968575477600D-07  .667388795409D-02  .516884028912D-05  .515369405556D+04
     .331200000000D+06  .633299350739D-07  .138790564544D+01 -.782310962677D-07
     .934926248940D+00  .266906250000D+03 -.254928743496D+01 -.826498712703D-08
     .336799743347D-09  .100000000000D+01  .229600000000D+04  .000000000000D+00
     .240000000000D+01  .000000000000D+00  .372529029846D-08  .660000000000D+02
     .324000000000D+06  .400000000000D+01
26 24  1 10 20  0  0.0  .201530754566D-03 -.352429196937D-11  .000000000000D+00
     .520000000000D+02 -.440625000000D+01  .526164774018D-08  .247370554564D+01
    -.251457095146D-06  .875086081214D-02  .886246562004D-05  .515356658554D+04
     .331200000000D+06 -.132247805595D-06  .235604588112D+01 -.596046447754D-07
     .931926361331D+00  .194593750000D+03  .515301656748D+00 -.806462163815D-08
    -.653955811313D-09  .100000000000D+01  .229600000000D+04  .000000000000D+00
     .240000000000D+01  .000000000000D+00  .698491930962D-08  .520000000000D+02
     .324000000000D+06  .400000000000D+01
15 24  1 10 20  0  0.0  .115904491395D-03  .386535248253D-11  .000000000000D+00
     .480000000000D+02 -.720625000000D+02  .481412909923D-08 -.317946419699D+00
    -.369548797607D-05  .154179928359D-01  .111293047667D-04  .515359684181D+04
     .331200000000D+06 -.106170773506D-06  .188920285471D+00  .182539224625D-06
     .934607445443D+00  .154531250000D+03  .128499108920D+01 -.824034324337D-08
     .535736601294D-09  .100000000000D+01  .229600000000D+04  .000000000000D+00
     .240000000000D+01  .000000000000D+00 -.102445483208D-07  .480000000000D+02
     .324000000000D+06  .400000000000D+01
20 24  1 10 20  0  0.0  .392190180719D-03 -.193267624127D-11  .000000000000D+00
     .580000000000D+02 -.149937500000D+03  .469269546960D-08 -.734932743002D+00
    -.773929059505D-05  .400059903041D-02  .239163637161D-05  .515369826889D+04
     .331200000000D+06  .160187482834D-06 -.883572216992D+00  .707805156708D-07
     .951862039000D+00  .329656250000D+03 -.267907166943D+01 -.841035032485D-08
    -.275725770799D-09  .100000000000D+01  .229600000000D+04  .000000000000D+00
     .240000000000D+01  .000000000000D+00 -.838190317154D-08  .580000000000D+02
     .324000000000D+06  .400000000000D+01
17 24  1 10 20  0  0.0  .720183365047D-03 -.909494701773D-12  .000000000000D+00
     .400000000000D+02  .164000000000D+03  .409374194936D-08  .717115322434D+00
     .841543078423D-05  .137070862111D-01  .883638858795D-05  .515365541649D+04
     .331200000000D+06 -.162050127983D-06 -.274355565153D+01 -.154599547386D-06
     .971366935572D+00  .217593750000D+03 -.134708998233D+01 -.804033491222D-08
    -.103575742917D-10  .100000000000D+01  .229600000000D+04  .000000000000D+00
     .240000000000D+01  .000000000000D+00 -.111758708954D-07  .400000000000D+02
     .324000000000D+06  .400000000000D+01
29 24  1 10 20  0  0.0 -.608864706010D-03  .454747350886D-12  .000000000000D+00
     .123000000000D+03  .150437500000D+03  .395302180208D-08  .653199963418D+00
     .773184001446D-05  .252591271419D-02  .866316258907D-05  .515366809654D+04
     .331200000000D+06  .372529029846D-08 -.272889794969D+01 -.409781932831D-07
     .973723839964D+00  .216875000000D+03  .252896532309D+01 -.775889461768D-08
     .821462788651D-11  .100000000000D+01  .229600000000D+04  .000000000000D+00
     .340000000000D+01  .000000000000D+00 -.102445483208D-07  .123000000000D+03
     .324000000000D+06  .400000000000D+01
